{"fetched_at":"2026-03-29T16:36:15Z","count":15609,"tles":[{"name":"STARLINK-5231","line1":"1 54182U 22141AB  26087.82904254  .00000675  00000+0  60464-4 0  9998","line2":"2 54182  53.2168 247.8348 0001290  89.9466 270.1674 15.08840956189176","category":"Starlink"}]}